{
  "norad_id": 39761,
  "name": "COSMOS 2496 (RODNIK-S 10)",
  "history": [
    {
      "epoch": "2026-03-28T22:15:49.093920Z",
      "apogee_km": 1509.2285223142144,
      "perigee_km": 1479.6481078253719,
      "latitude_deg": 2.7996602118214277e-05,
      "longitude_deg": -1.2955253340269777,
      "height_km": 1501.7220203262789,
      "semi_major_axis_km": 7872.575315069793,
      "eccentricity": 0.0018787,
      "inclination_deg": 82.4485,
      "raan_deg": 159.0001,
      "arg_perigee_deg": 251.948,
      "mean_anomaly_deg": 107.9553,
      "mean_motion_rev_day": 12.4287521
    },
    {
      "epoch": "2026-03-29T04:03:34.122816Z",
      "apogee_km": 1509.2398488756444,
      "perigee_km": 1479.635818471099,
      "latitude_deg": -1.5423895997005758e-05,
      "longitude_deg": -88.62237815101118,
      "height_km": 1501.8512099177078,
      "semi_major_axis_km": 7872.574833673371,
      "eccentricity": 0.0018802,
      "inclination_deg": 82.4485,
      "raan_deg": 158.8489,
      "arg_perigee_deg": 251.4345,
      "mean_anomaly_deg": 108.4692,
      "mean_motion_rev_day": 12.42875324
    },
    {
      "epoch": "2026-03-30T05:10:29.313984Z",
      "apogee_km": 1509.2518777354098,
      "perigee_km": 1479.6242287799805,
      "latitude_deg": -2.433067495512997e-05,
      "longitude_deg": -107.03889184284417,
      "height_km": 1502.4422445624289,
      "semi_major_axis_km": 7872.575053257695,
      "eccentricity": 0.0018817,
      "inclination_deg": 82.4486,
      "raan_deg": 158.1938,
      "arg_perigee_deg": 249.0233,
      "mean_anomaly_deg": 110.8833,
      "mean_motion_rev_day": 12.42875272
    }
  ]
}